     2.100          NAVIGATION                              RINEX VERSION / TYPE
fic2rin                                 07/26/2017 00:19:00 PGM / RUN BY / DATE
                                                            END OF HEADER
 3 17  7 25 22  0  0.0 -.844844616950D-04  .329691829393D-11  .000000000000D+00
     .480000000000D+02 -.242500000000D+02  .432803742299D-08  .270496946388D+01
    -.133737921715D-05  .843010842800D-03  .120401382446D-04  .515370096016D+04
     .252000000000D+06 -.465661287308D-07 -.247659754011D+01 -.372529029846D-08
     .960204055782D+00  .146500000000D+03  .215500295675D+00 -.781746848608D-08
     .229295265354D-09  .100000000000D+01  .195900000000D+04  .000000000000D+00
     .240000000000D+01  .000000000000D+00  .232830643654D-08  .480000000000D+02
     .244806000000D+06  .400000000000D+01
 4 17  7 25 22  0  0.0  .141281634569D-05  .443378667114D-11  .000000000000D+00
     .710000000000D+02  .766875000000D+02  .494484882994D-08 -.419428505578D+00
     .423192977905D-05  .122754654149D-01  .346451997757D-05  .515366193581D+04
     .252000000000D+06  .147148966789D-06  .161831810439D+01  .100582838058D-06
     .956393209776D+00  .309750000000D+03  .424315178613D+00 -.864821737582D-08
     .397873715894D-09  .100000000000D+01  .195900000000D+04  .000000000000D+00
     .240000000000D+01  .630000000000D+02 -.558793544769D-08  .710000000000D+02
     .244806000000D+06  .400000000000D+01
 5 17  7 25 22  0  0.0 -.358242541552D-04  .147792889038D-11  .000000000000D+00
     .750000000000D+02 -.304375000000D+02  .470341020163D-08  .112964629362D+00
    -.153854489326D-05  .511123216711D-02  .124871730804D-04  .515380053520D+04
     .252000000000D+06  .000000000000D+00 -.249424198378D+01  .465661287308D-07
     .947162632645D+00  .127468750000D+03  .557132851254D+00 -.810676625078D-08
     .155720772109D-09  .100000000000D+01  .195900000000D+04  .000000000000D+00
     .240000000000D+01  .000000000000D+00 -.107102096081D-07  .750000000000D+02
     .244806000000D+06  .400000000000D+01
 6 17  7 25 22  0  0.0  .381263438612D-03  .420641299570D-11  .000000000000D+00
     .470000000000D+02 -.113468750000D+03  .464412201775D-08 -.277482717419D+01
    -.578351318836D-05  .663869665004D-03  .598095357418D-05  .515371681976D+04
     .252000000000D+06 -.894069671631D-07  .275620816814D+01  .726431608200D-07
     .968107960782D+00  .268281250000D+03 -.102132354282D+01 -.823284293095D-08
    -.263939565571D-09  .100000000000D+01  .195900000000D+04  .000000000000D+00
     .240000000000D+01  .000000000000D+00  .465661287308D-08  .470000000000D+02
     .244806000000D+06  .400000000000D+01
 7 17  7 25 22  0  0.0  .323699787259D-03 -.466116034659D-11  .000000000000D+00
     .880000000000D+02 -.366875000000D+02  .445661420730D-08  .283493283266D+01
    -.199489295483D-05  .109037437942D-01  .817142426968D-05  .515372836304D+04
     .252000000000D+06 -.949949026108D-07 -.361961926447D+00 -.100582838058D-06
     .961838746776D+00  .221750000000D+03 -.258133121890D+01 -.788139972051D-08
    -.578952687132D-09  .100000000000D+01  .195900000000D+04  .000000000000D+00
     .240000000000D+01  .000000000000D+00 -.111758708954D-07  .880000000000D+02
     .244806000000D+06  .400000000000D+01
 8 17  7 25 22  0  0.0 -.676210038364D-04 -.125055521494D-11  .000000000000D+00
     .640000000000D+02  .601875000000D+02  .463412160119D-08 -.142190521480D+00
     .309757888317D-05  .254064868204D-02  .274181365967D-05  .515366548538D+04
     .252000000000D+06 -.298023223877D-07  .170097461288D+01 -.372529029846D-08
     .966939323304D+00  .326093750000D+03 -.627550606105D+00 -.845320925295D-08
     .363943731146D-09  .100000000000D+01  .195900000000D+04  .000000000000D+00
     .240000000000D+01  .000000000000D+00  .512227416039D-08  .640000000000D+02
     .244806000000D+06  .400000000000D+01
 9 17  7 25 22  0  0.0  .412762165070D-03  .738964445191D-11  .000000000000D+00
     .320000000000D+02  .427187500000D+02  .510164107526D-08 -.569436640373D+00
     .219233334064D-05  .651628477499D-03  .545382499695D-05  .515358099174D+04
     .252000000000D+06 -.558793544769D-08 -.144060068026D+01  .372529029846D-07
     .952885158555D+00  .269125000000D+03  .193206389088D+01 -.839070664947D-08
     .220366321999D-09  .100000000000D+01  .195900000000D+04  .000000000000D+00
     .240000000000D+01  .000000000000D+00  .139698386192D-08  .320000000000D+02
     .244806000000D+06  .400000000000D+01
10 17  7 25 22  0  0.0  .179009512067D-04  .114823706099D-10  .000000000000D+00
     .800000000000D+02 -.380312500000D+02  .444447084434D-08  .133698053083D+01
    -.181235373020D-05  .263313867617D-02  .121816992760D-04  .515367917442D+04
     .252000000000D+06  .707805156708D-07 -.248026942499D+01  .558793544769D-07
     .960359758542D+00  .144968750000D+03 -.279302909205D+01 -.793247327650D-08
     .184293390845D-09  .100000000000D+01  .195900000000D+04  .000000000000D+00
     .240000000000D+01  .000000000000D+00  .186264514923D-08  .800000000000D+02
     .244806000000D+06  .400000000000D+01
11 17  7 25 22  0  0.0 -.704748556018D-03 -.250111042988D-11  .000000000000D+00
     .550000000000D+02 -.651250000000D+02  .617597153972D-08  .286013789444D+01
    -.350549817085D-05  .169996574987D-01  .957399606705D-06  .515372397995D+04
     .252000000000D+06  .350177288055D-06  .235816281575D+01 -.949949026108D-07
     .901646363590D+00  .327281250000D+03  .166600462705D+01 -.891322841460D-08
    -.152149194768D-09  .100000000000D+01  .195900000000D+04  .000000000000D+00
     .240000000000D+01  .000000000000D+00 -.121071934700D-07  .550000000000D+02
     .244806000000D+06  .400000000000D+01
12 17  7 25 22  0  0.0  .377917196602D-03 -.113686837722D-11  .000000000000D+00
     .600000000000D+02  .877812500000D+02  .348157359294D-08  .221489278800D+01
     .450946390629D-05  .659103470389D-02  .123605132103D-04  .515375325394D+04
     .252000000000D+06 -.298023223877D-07  .723117044796D+00 -.135973095894D-06
     .989065991437D+00  .152781250000D+03  .910316280293D+00 -.751352725428D-08
     .143934566881D-09  .100000000000D+01  .195900000000D+04  .000000000000D+00
     .240000000000D+01  .000000000000D+00 -.125728547573D-07  .600000000000D+02
     .244806000000D+06  .400000000000D+01
13 17  7 25 22  0  0.0 -.882986932993D-04 -.795807864051D-12  .000000000000D+00
     .112000000000D+03  .263750000000D+02  .471983945740D-08 -.231578307231D+01
     .133179128170D-05  .352916889824D-02  .551156699657D-05  .515368267632D+04
     .252000000000D+06  .106170773506D-06 -.131342528955D+01  .298023223877D-07
     .968900206994D+00  .279781250000D+03  .180331867788D+01 -.811498087867D-08
     .771460705864D-10  .100000000000D+01  .195900000000D+04  .000000000000D+00
     .340000000000D+01  .000000000000D+00 -.111758708954D-07  .112000000000D+03
     .244806000000D+06  .400000000000D+01
14 17  7 25 22  0  0.0 -.788206234574D-04 -.125055521494D-11  .000000000000D+00
     .870000000000D+02  .325312500000D+02  .496734976720D-08 -.968159196562D+00
     .169686973095D-05  .933543883730D-02  .555813312531D-05  .515366617775D+04
     .252000000000D+06 -.335276126862D-07 -.135329515125D+01  .193715095520D-06
     .961418425542D+00  .273968750000D+03 -.195245518414D+01 -.838784938760D-08
     .131434046184D-09  .100000000000D+01  .195900000000D+04  .000000000000D+00
     .240000000000D+01  .000000000000D+00 -.931322574615D-08  .870000000000D+02
     .244806000000D+06  .400000000000D+01
15 17  7 25 22  0  0.0 -.353815034032D-03 -.568434188608D-12  .000000000000D+00
     .300000000000D+02  .425312500000D+02  .557308928440D-08 -.151995864641D+01
     .221095979214D-05  .936531717889D-02  .585615634918D-05  .515357108688D+04
     .252000000000D+06  .165775418282D-06 -.150370338829D+01 -.163912773132D-06
     .928501864675D+00  .249375000000D+03  .584849668765D+00 -.850642575535D-08
     .363229415677D-09  .100000000000D+01  .195900000000D+04  .000000000000D+00
     .240000000000D+01  .000000000000D+00 -.107102096081D-07  .300000000000D+02
     .244806000000D+06  .400000000000D+01
16 17  7 25 22  0  0.0  .362861901522D-04  .227373675443D-12  .000000000000D+00
     .770000000000D+02  .692500000000D+02  .355764819033D-08  .254351227618D+00
     .379420816898D-05  .927982816938D-02  .112429261208D-04  .515373750687D+04
     .252000000000D+06  .111758708954D-06  .741979012278D+00  .160187482834D-06
     .989522818329D+00  .178750000000D+03  .462294599054D+00 -.767281960373D-08
     .152149194768D-09  .100000000000D+01  .195900000000D+04  .000000000000D+00
     .240000000000D+01  .000000000000D+00 -.107102096081D-07  .770000000000D+02
     .244806000000D+06  .400000000000D+01
17 17  7 25 22  0  0.0 -.167348422110D-03  .227373675443D-11  .000000000000D+00
     .170000000000D+02  .500625000000D+02  .455518974194D-08 -.654470376107D+00
     .282004475594D-05  .116951621603D-01  .275671482086D-05  .515365825462D+04
     .252000000000D+06 -.596046447754D-07  .175937075064D+01  .147148966789D-06
     .980202404862D+00  .342593750000D+03 -.184673822984D+01 -.849571102332D-08
     .365729519817D-09  .100000000000D+01  .195900000000D+04  .000000000000D+00
     .240000000000D+01  .000000000000D+00 -.111758708954D-07  .170000000000D+02
     .244806000000D+06  .400000000000D+01
18 17  7 25 22  0  0.0  .624951906502D-03  .113686837722D-11  .000000000000D+00
     .400000000000D+02 -.513437500000D+02  .526057626697D-08  .800023935591D+00
    -.255927443504D-05  .181317876559D-01  .127181410789D-04  .515362869644D+04
     .252000000000D+06 -.279396772385D-06 -.252454372195D+01  .130385160446D-07
     .926002896309D+00  .123500000000D+03 -.179001557967D+01 -.862357349216D-08
     .957182727646D-10  .100000000000D+01  .195900000000D+04  .000000000000D+00
     .240000000000D+01  .000000000000D+00 -.111758708954D-07  .400000000000D+02
     .244806000000D+06  .400000000000D+01
